     3.00           N                   E                   RINEX VERSION / TYPE
BRD_USR             ESA                 20190111 171741  UTCPGM / RUN BY / DATE
 GAL   4.5750E+01  3.1250E-02 -1.9836E-03  0.0000E+00       IONOSPHERIC CORR
GAUT  2.7939677238E-09-1.776356839E-15 432000 2035 GSTB   0 TIME SYSTEM CORR
GPGA  2.1827872843E-09 1.199040867E-14 518400 2035 GSTB   0 TIME SYSTEM CORR
                                                            END OF HEADER
E05 2019 01 11 14 40 00 1.268660416827E-04-6.465938895417E-12 0.000000000000E+00
     4.000000000000E+01-1.806250000000E+01 3.252635485324E-09-1.231399048599E+00
    -8.177012205124E-07 1.302727032453E-04 1.078471541405E-05 5.440619800568E+03
     4.848000000000E+05 0.000000000000E+00 1.241860061256E+00-9.313225746155E-09
     9.524446826983E-01 1.067187500000E+02 1.611560489334E+00-5.497014687012E-09
     2.778687172046E-10 5.210000000000E+02 2.035000000000E+03 0.000000000000E+00
     3.120000000000E+00 0.000000000000E+00-1.396983861923E-09-1.396983861923E-09
     4.860250000000E+05 0.000000000000E+00 0.000000000000E+00 0.000000000000E+00
E07 2019 01 11 14 40 00-1.106241252273E-04-7.048583938740E-12 0.000000000000E+00
     4.000000000000E+01 2.406250000000E+00 3.265850321489E-09-1.949474276434E+00
     1.136213541031E-07 1.347890356556E-04 1.136958599091E-05 5.440622171402E+03
     4.848000000000E+05 5.587935447693E-09 1.241878479395E+00-1.117587089539E-08
     9.524748071074E-01 9.184375000000E+01-2.827043691432E-02-5.555945713154E-09
     2.971552348511E-10 5.210000000000E+02 2.035000000000E+03 0.000000000000E+00
     3.120000000000E+00 0.000000000000E+00 0.000000000000E+00-2.328306436539E-10
     4.860250000000E+05 0.000000000000E+00 0.000000000000E+00 0.000000000000E+00
E08 2019 01 11 14 40 00 6.425488740206E-03-7.460698725481E-12 0.000000000000E+00
     4.000000000000E+01 5.000000000000E+00 3.252635485324E-09-1.653827222348E+00
     2.272427082062E-07 2.136670518667E-04 1.087598502636E-05 5.440619676590E+03
     4.848000000000E+05-5.587935447693E-09 1.233262071847E+00 1.117587089539E-08
     9.584181561118E-01 1.080937500000E+02 4.626943545857E-01-5.510943838646E-09
     3.060841782060E-10 5.210000000000E+02 2.035000000000E+03 0.000000000000E+00
     3.120000000000E+00 0.000000000000E+00-8.614733815193E-09-1.001171767712E-08
     4.860250000000E+05 0.000000000000E+00 0.000000000000E+00 0.000000000000E+00
E09 2019 01 11 14 40 00 6.561376911122E-03-1.129762949859E-11 0.000000000000E+00
     4.000000000000E+01-2.534375000000E+01 3.175489414737E-09 1.091446819575E+00
    -1.069158315659E-06 2.413759939373E-04 1.089088618755E-05 5.440619680405E+03
     4.848000000000E+05 2.980232238770E-08 1.233259191361E+00-3.725290298462E-09
     9.584485716416E-01 1.054062500000E+02 7.235217581568E-02-5.463084702263E-09
     2.653681965077E-10 5.210000000000E+02 2.035000000000E+03 0.000000000000E+00
     3.120000000000E+00 0.000000000000E+00-3.026798367500E-09-3.725290298462E-09
     4.860250000000E+05 0.000000000000E+00 0.000000000000E+00 0.000000000000E+00
E11 2019 01 11 14 40 00 5.719569337089E-03 8.810729923425E-13 0.000000000000E+00
     4.000000000000E+01 1.884375000000E+01 3.007982437399E-09-2.668170925537E+00
     9.443610906601E-07 2.698354655877E-04 2.907589077950E-06 5.440598083496E+03
     4.848000000000E+05-4.470348358154E-08-8.634234462865E-01 0.000000000000E+00
     9.819095205414E-01 2.880625000000E+02-3.555446051514E-01-5.770954669140E-09
     2.417957860507E-10 5.210000000000E+02 2.035000000000E+03 0.000000000000E+00
     3.120000000000E+00 0.000000000000E+00-1.862645149231E-08-2.002343535423E-08
     4.860250000000E+05 0.000000000000E+00 0.000000000000E+00 0.000000000000E+00
E12 2019 01 11 14 40 00 5.919308168814E-03 8.431300102529E-11 0.000000000000E+00
     4.000000000000E+01 2.512500000000E+01 3.035840740667E-09-1.356757408746E+00
     1.141801476479E-06 3.960781032220E-04 2.838671207428E-06 5.440601819992E+03
     4.848000000000E+05-1.117587089539E-08-8.634391273054E-01-3.352761268616E-08
     9.819234533732E-01 2.898750000000E+02-8.633234104853E-01-5.813813597244E-09
     2.571535686212E-10 5.210000000000E+02 2.035000000000E+03 0.000000000000E+00
     3.120000000000E+00 0.000000000000E+00-1.559965312481E-08-1.606531441212E-08
     4.860250000000E+05 0.000000000000E+00 0.000000000000E+00 0.000000000000E+00
E13 2019 01 11 13 30 00 3.816015669145E-04 5.115907697473E-13 0.000000000000E+00
     3.300000000000E+01 1.312500000000E+01 2.972623821714E-09 1.123366831869E+00
     7.115304470062E-07 3.431785153225E-04 1.996755599976E-06 5.440597076416E+03
     4.806000000000E+05 2.235174179077E-08-8.686892360049E-01-4.842877388000E-08
     9.851502205581E-01 3.081875000000E+02-1.519689645036E+00-5.820599594194E-09
     2.296524230881E-10 5.210000000000E+02 2.035000000000E+03 0.000000000000E+00
    -1.000000000000E+00 4.550000000000E+02-4.423782229424E-09-5.355104804039E-09
     4.860250000000E+05 0.000000000000E+00 0.000000000000E+00 0.000000000000E+00
E14 2019 01 11 13 30 00 6.461489072535E-03-5.542233338929E-12 0.000000000000E+00
     3.300000000000E+01 1.303125000000E+02 4.075884062646E-09 2.024869143379E+00
     4.766508936882E-06 1.662726677023E-01 3.302469849586E-06 5.289383485794E+03
     4.806000000000E+05 2.058222889900E-06-1.465078148031E+00-1.208856701851E-06
     8.826226983096E-01 2.083437500000E+02 1.456681516129E+00-5.633091783741E-09
    -4.178745490094E-11 5.210000000000E+02 2.035000000000E+03 0.000000000000E+00
     3.120000000000E+00 4.550000000000E+02 3.306195139885E-08 3.725290298462E-08
     4.860250000000E+05 0.000000000000E+00 0.000000000000E+00 0.000000000000E+00
E15 2019 01 11 14 40 00 9.232523152605E-04-9.805489753489E-13 0.000000000000E+00
     4.000000000000E+01 1.309375000000E+01 2.965123509296E-09 2.517980739365E+00
     5.736947059631E-07 3.899065777659E-04 1.979991793633E-06 5.440596611023E+03
     4.848000000000E+05 3.352761268616E-08-8.687247190830E-01 1.490116119385E-08
     9.851092734811E-01 3.100312500000E+02-1.611338911373E+00-5.772740457811E-09
     1.785788670980E-10 5.210000000000E+02 2.035000000000E+03 0.000000000000E+00
     3.120000000000E+00 4.550000000000E+02 1.396983861923E-09 1.396983861923E-09
     4.860250000000E+05 0.000000000000E+00 0.000000000000E+00 0.000000000000E+00
E18 2019 01 11 14 40 00 5.614157998934E-03-2.847855284926E-11 0.000000000000E+00
     4.000000000000E+01 4.146875000000E+01 6.864214493515E-09-5.805218567684E-01
     2.868473529816E-06 1.663062776206E-01 7.838010787964E-06 5.289321331024E+03
     4.848000000000E+05-2.203509211540E-06-1.447921090148E+00 1.000240445137E-06
     8.818045291895E-01 2.127500000000E+02 1.441260652348E+00-1.174906082411E-08
     5.635949045614E-10 5.210000000000E+02 2.035000000000E+03 0.000000000000E+00
     3.120000000000E+00 4.550000000000E+02 1.420266926289E-08 1.583248376846E-08
     4.860250000000E+05 0.000000000000E+00 0.000000000000E+00 0.000000000000E+00
E19 2019 01 11 14 40 00-9.202922228724E-06 3.410605131648E-13 0.000000000000E+00
     4.000000000000E+01-1.528125000000E+01 3.224420024322E-09 4.481490399606E-01
    -6.593763828278E-07 1.309827202931E-04 1.239962875843E-05 5.440618804932E+03
     4.848000000000E+05-5.587935447693E-09 1.238614374152E+00 2.235174179077E-08
     9.582039717387E-01 7.150000000000E+01 2.365837093811E+00-5.464870490934E-09
     2.935836575092E-10 5.210000000000E+02 2.035000000000E+03 0.000000000000E+00
     3.120000000000E+00 0.000000000000E+00-8.614733815193E-09-8.847564458847E-09
     4.860250000000E+05 0.000000000000E+00 0.000000000000E+00 0.000000000000E+00
E21 2019 01 11 14 40 00-5.139125860296E-04-1.818989403546E-12 0.000000000000E+00
     4.000000000000E+01 4.593750000000E+00 2.684754687952E-09 1.316823822335E+00
     1.993030309677E-07 4.892365541309E-05 8.592382073402E-06 5.440625003815E+03
     4.848000000000E+05-1.676380634308E-08-2.951348125896E+00 2.048909664154E-08
     9.897364424041E-01 1.699375000000E+02 1.296861150901E-01-5.331293498345E-09
    -5.218074496605E-10 5.210000000000E+02 2.035000000000E+03 0.000000000000E+00
     3.120000000000E+00 0.000000000000E+00-2.561137080193E-09-3.259629011154E-09
     4.860250000000E+05 0.000000000000E+00 0.000000000000E+00 0.000000000000E+00
E24 2019 01 11 14 40 00 6.291425612289E-03-1.969624463527E-11 0.000000000000E+00
     4.000000000000E+01-7.281250000000E+00 2.807616948515E-09-1.416965489043E+00
    -3.967434167862E-07 4.784462507814E-04 7.934868335724E-06 5.440611381531E+03
     4.848000000000E+05 6.705522537231E-08-2.945276420459E+00 7.636845111847E-08
     9.877412123233E-01 1.850000000000E+02 4.865743739243E-01-5.478442484834E-09
    -5.671664819034E-10 5.210000000000E+02 2.035000000000E+03 0.000000000000E+00
     3.120000000000E+00 0.000000000000E+00 4.284083843231E-08 4.796311259270E-08
     4.860250000000E+05 0.000000000000E+00 0.000000000000E+00 0.000000000000E+00
E25 2019 01 11 14 40 00 1.926972938236E-03-1.132605120802E-11 0.000000000000E+00
     4.000000000000E+01-8.125000000000E+00 2.721184776840E-09-3.700937584734E-01
    -3.408640623093E-07 1.962124370039E-04 7.845461368561E-06 5.440621936798E+03
     4.848000000000E+05-3.352761268616E-08-2.951357326188E+00-3.911554813385E-08
     9.897420219737E-01 1.875625000000E+02-1.323410643171E+00-5.370938006841E-09
    -4.778770483544E-10 5.210000000000E+02 2.035000000000E+03 0.000000000000E+00
     3.120000000000E+00 0.000000000000E+00-1.164153218269E-09-1.629814505577E-09
     4.860250000000E+05 0.000000000000E+00 0.000000000000E+00 0.000000000000E+00
